{
  "type": "FeatureCollection",
  "features": [
    {
      "type": "Feature",
      "properties": {
        "norad_id": 43706,
        "name": "BEIDOU-3 M17 (C36)",
        "group": "beidou",
        "lat": -47.44844378339156,
        "lon": 136.3877163593115,
        "alt_km": 21517.10597817399,
        "timestamp": "2025-12-21T11:31:43.121135+00:00",
        "meta_object_name": "BEIDOU-3 M17 (C36)",
        "meta_object_id": "2018-093A",
        "meta_epoch": "2025-12-20T12:04:20.840736",
        "meta_mean_motion": 1.86228485,
        "meta_eccentricity": 0.00060883,
        "meta_inclination": 54.1751,
        "meta_ra_of_asc_node": 188.3582,
        "meta_arg_of_pericenter": 307.8758,
        "meta_mean_anomaly": 51.559,
        "meta_ephemeris_type": 0,
        "meta_classification_type": "U",
        "meta_norad_cat_id": 43706,
        "meta_element_set_no": 999,
        "meta_rev_at_epoch": 4820,
        "meta_bstar": 0,
        "meta_mean_motion_dot": 9.7e-07,
        "meta_mean_motion_ddot": 0,
        "tle_line1": "1 43706U 18093A   25354.50301899  .00000097  00000+0  00000+0 0  9999",
        "tle_line2": "2 43706  54.1751 188.3582 0006088 307.8758  51.5590  1.86228485 48203"
      },
      "geometry": {
        "type": "Point",
        "coordinates": [
          136.3877163593115,
          -47.44844378339156
        ]
      }
    },
    {
      "type": "Feature",
      "properties": {
        "norad_id": 43707,
        "name": "BEIDOU-3 M18 (C37)",
        "group": "beidou",
        "lat": 21.988399409559545,
        "lon": -154.70768521991326,
        "alt_km": 21511.39006994671,
        "timestamp": "2025-12-21T11:31:43.121149+00:00",
        "meta_object_name": "BEIDOU-3 M18 (C37)",
        "meta_object_id": "2018-093B",
        "meta_epoch": "2025-12-20T21:39:28.587744",
        "meta_mean_motion": 1.86226757,
        "meta_eccentricity": 0.0006217,
        "meta_inclination": 54.1741,
        "meta_ra_of_asc_node": 188.3365,
        "meta_arg_of_pericenter": 353.7926,
        "meta_mean_anomaly": 6.2524,
        "meta_ephemeris_type": 0,
        "meta_classification_type": "U",
        "meta_norad_cat_id": 43707,
        "meta_element_set_no": 999,
        "meta_rev_at_epoch": 4821,
        "meta_bstar": 0,
        "meta_mean_motion_dot": 9.5e-07,
        "meta_mean_motion_ddot": 0,
        "tle_line1": "1 43707U 18093B   25354.90241421  .00000095  00000+0  00000+0 0  9996",
        "tle_line2": "2 43707  54.1741 188.3365 0006217 353.7926   6.2524  1.86226757 48218"
      },
      "geometry": {
        "type": "Point",
        "coordinates": [
          -154.70768521991326,
          21.988399409559545
        ]
      }
    },
    {
      "type": "Feature",
      "properties": {
        "norad_id": 44231,
        "name": "BEIDOU-2 G8 (C01)",
        "group": "beidou",
        "lat": -0.7437414807245447,
        "lon": 47.78795630546678,
        "alt_km": 35775.89869541017,
        "timestamp": "2025-12-21T11:31:43.121163+00:00",
        "meta_object_name": "BEIDOU-2 G8 (C01)",
        "meta_object_id": "2019-027A",
        "meta_epoch": "2025-12-19T12:14:23.449632",
        "meta_mean_motion": 1.00276563,
        "meta_eccentricity": 0.0008196,
        "meta_inclination": 1.6785,
        "meta_ra_of_asc_node": 74.7229,
        "meta_arg_of_pericenter": 258.5641,
        "meta_mean_anomaly": 83.1013,
        "meta_ephemeris_type": 0,
        "meta_classification_type": "U",
        "meta_norad_cat_id": 44231,
        "meta_element_set_no": 999,
        "meta_rev_at_epoch": 2427,
        "meta_bstar": 0,
        "meta_mean_motion_dot": -2.24e-06,
        "meta_mean_motion_ddot": 0,
        "tle_line1": "1 44231U 19027A   25353.50999363 -.00000224  00000+0  00000+0 0  9992",
        "tle_line2": "2 44231   1.6785  74.7229 0008196 258.5641  83.1013  1.00276563 24270"
      },
      "geometry": {
        "type": "Point",
        "coordinates": [
          47.78795630546678,
          -0.7437414807245447
        ]
      }
    },
    {
      "type": "Feature",
      "properties": {
        "norad_id": 44337,
        "name": "BEIDOU-3 IGSO-2 (C39)",
        "group": "beidou",
        "lat": -33.62758783296871,
        "lon": 7.968139874875577,
        "alt_km": 35643.06610737274,
        "timestamp": "2025-12-21T11:31:43.121176+00:00",
        "meta_object_name": "BEIDOU-3 IGSO-2 (C39)",
        "meta_object_id": "2019-035A",
        "meta_epoch": "2025-12-20T20:45:51.571008",
        "meta_mean_motion": 1.00268938,
        "meta_eccentricity": 0.00375986,
        "meta_inclination": 55.2283,
        "meta_ra_of_asc_node": 160.43,
        "meta_arg_of_pericenter": 202.2266,
        "meta_mean_anomaly": 157.9019,
        "meta_ephemeris_type": 0,
        "meta_classification_type": "U",
        "meta_norad_cat_id": 44337,
        "meta_element_set_no": 999,
        "meta_rev_at_epoch": 2388,
        "meta_bstar": 0,
        "meta_mean_motion_dot": -6.9e-07,
        "meta_mean_motion_ddot": 0,
        "tle_line1": "1 44337U 19035A   25354.86518022 -.00000069  00000+0  00000+0 0  9994",
        "tle_line2": "2 44337  55.2283 160.4300 0037598 202.2266 157.9019  1.00268938 23884"
      },
      "geometry": {
        "type": "Point",
        "coordinates": [
          7.968139874875577,
          -33.62758783296871
        ]
      }
    },
    {
      "type": "Feature",
      "properties": {
        "norad_id": 44542,
        "name": "BEIDOU-3 M24 (C46)",
        "group": "beidou",
        "lat": -16.2239046932776,
        "lon": 176.68667838992047,
        "alt_km": 21511.821253738,
        "timestamp": "2025-12-21T11:31:43.121190+00:00",
        "meta_object_name": "BEIDOU-3 M24 (C46)",
        "meta_object_id": "2019-061A",
        "meta_epoch": "2025-12-20T10:28:25.457664",
        "meta_mean_motion": 1.86229474,
        "meta_eccentricity": 0.00096021,
        "meta_inclination": 54.4004,
        "meta_ra_of_asc_node": 188.7562,
        "meta_arg_of_pericenter": 25.7193,
        "meta_mean_anomaly": 334.3849,
        "meta_ephemeris_type": 0,
        "meta_classification_type": "U",
        "meta_norad_cat_id": 44542,
        "meta_element_set_no": 999,
        "meta_rev_at_epoch": 4246,
        "meta_bstar": 0,
        "meta_mean_motion_dot": 9.8e-07,
        "meta_mean_motion_ddot": 0,
        "tle_line1": "1 44542U 19061A   25354.43640576  .00000098  00000+0  00000+0 0  9995",
        "tle_line2": "2 44542  54.4004 188.7562 0009602  25.7193 334.3849  1.86229474 42462"
      },
      "geometry": {
        "type": "Point",
        "coordinates": [
          176.68667838992047,
          -16.2239046932776
        ]
      }
    },
    {
      "type": "Feature",
      "properties": {
        "norad_id": 44543,
        "name": "BEIDOU-3 M23 (C45)",
        "group": "beidou",
        "lat": -50.878226791835914,
        "lon": 70.5087630529586,
        "alt_km": 21545.472844943055,
        "timestamp": "2025-12-21T11:31:43.121203+00:00",
        "meta_object_name": "BEIDOU-3 M23 (C45)",
        "meta_object_id": "2019-061B",
        "meta_epoch": "2025-12-20T19:59:50.640000",
        "meta_mean_motion": 1.86227682,
        "meta_eccentricity": 0.00060744,
        "meta_inclination": 54.3995,
        "meta_ra_of_asc_node": 188.7112,
        "meta_arg_of_pericenter": 25.3362,
        "meta_mean_anomaly": 153.5268,
        "meta_ephemeris_type": 0,
        "meta_classification_type": "U",
        "meta_norad_cat_id": 44543,
        "meta_element_set_no": 999,
        "meta_rev_at_epoch": 4247,
        "meta_bstar": 0,
        "meta_mean_motion_dot": 9.6e-07,
        "meta_mean_motion_ddot": 0,
        "tle_line1": "1 44543U 19061B   25354.83322500  .00000096  00000+0  00000+0 0  9992",
        "tle_line2": "2 44543  54.3995 188.7112 0006074  25.3362 153.5268  1.86227682 42472"
      },
      "geometry": {
        "type": "Point",
        "coordinates": [
          70.5087630529586,
          -50.878226791835914
        ]
      }
    },
    {
      "type": "Feature",
      "properties": {
        "norad_id": 44793,
        "name": "BEIDOU-3 M22 (C44)",
        "group": "beidou",
        "lat": 54.025156754172464,
        "lon": 31.482993503536935,
        "alt_km": 21513.98747219586,
        "timestamp": "2025-12-21T11:31:43.121215+00:00",
        "meta_object_name": "BEIDOU-3 M22 (C44)",
        "meta_object_id": "2019-078A",
        "meta_epoch": "2025-12-19T04:51:35.344224",
        "meta_mean_motion": 1.86232161,
        "meta_eccentricity": 0.0006038,
        "meta_inclination": 54.1023,
        "meta_ra_of_asc_node": 306.1592,
        "meta_arg_of_pericenter": 24.3104,
        "meta_mean_anomaly": 335.7082,
        "meta_ephemeris_type": 0,
        "meta_classification_type": "U",
        "meta_norad_cat_id": 44793,
        "meta_element_set_no": 999,
        "meta_rev_at_epoch": 4129,
        "meta_bstar": 0,
        "meta_mean_motion_dot": -7.7e-07,
        "meta_mean_motion_ddot": 0,
        "tle_line1": "1 44793U 19078A   25353.20249241 -.00000077  00000+0  00000+0 0  9997",
        "tle_line2": "2 44793  54.1023 306.1592 0006038  24.3104 335.7082  1.86232161 41295"
      },
      "geometry": {
        "type": "Point",
        "coordinates": [
          31.482993503536935,
          54.025156754172464
        ]
      }
    }
  ]
}